[
    {
        "CCSDS_OMM_VERS": "3.0",
        "COMMENT": "GENERATED VIA SPACE-TRACK.ORG API",
        "CREATION_DATE": "2025-04-14T03:05:54",
        "ORIGINATOR": "18 SPCS",
        "OBJECT_NAME": "QZS-1R",
        "OBJECT_ID": "2021-096A",
        "CENTER_NAME": "EARTH",
        "REF_FRAME": "TEME",
        "TIME_SYSTEM": "UTC",
        "MEAN_ELEMENT_THEORY": "SGP4",
        "EPOCH": "2025-04-13T19:36:38.520000",
        "MEAN_MOTION": "1.00276638",
        "ECCENTRICITY": "0.07526370",
        "INCLINATION": "36.5708",
        "RA_OF_ASC_NODE": "85.9786",
        "ARG_OF_PERICENTER": "270.4069",
        "MEAN_ANOMALY": "276.6701",
        "EPHEMERIS_TYPE": "0",
        "CLASSIFICATION_TYPE": "U",
        "NORAD_CAT_ID": "49336",
        "ELEMENT_SET_NO": "999",
        "REV_AT_EPOCH": "1270",
        "BSTAR": "0.00000000000000",
        "MEAN_MOTION_DOT": "-0.00000213",
        "MEAN_MOTION_DDOT": "0.0000000000000",
        "SEMIMAJOR_AXIS": "42163.372",
        "PERIOD": "1436.027",
        "APOAPSIS": "38958.608",
        "PERIAPSIS": "32611.865",
        "OBJECT_TYPE": "PAYLOAD",
        "RCS_SIZE": "LARGE",
        "COUNTRY_CODE": "JPN",
        "LAUNCH_DATE": "2021-10-26",
        "SITE": "TNSTA",
        "DECAY_DATE": null,
        "FILE": "4701263",
        "GP_ID": "285541546",
        "TLE_LINE0": "0 QZS-1R",
        "TLE_LINE1": "1 49336U 21096A   25103.81711250 -.00000213  00000-0  00000-0 0  9996",
        "TLE_LINE2": "2 49336  36.5708  85.9786 0752637 270.4069 276.6701  1.00276638 12709"
    }
]